NORAD_CAT_ID,OBJECT_NAME,OBJECT_TYPE,EPOCH,MEAN_MOTION,ECCENTRICITY,INCLINATION,RA_OF_ASC_NODE,ARG_OF_PERICENTER,MEAN_ANOMALY,BSTAR,MEAN_MOTION_DOT,MEAN_MOTION_DDOT,TLE_LINE0,TLE_LINE1,TLE_LINE2,SEMIMAJOR_AXIS,PERIOD,APOGEE,PERIGEE,DECAYED
52123.0,STARLINK-3725,PAYLOAD,2023-01-28 13:03:05,15.08842421,0.0001281,53.2148,129.4875,79.5782,280.5354,3.6171e-05,2.88e-06,0.0,0 STARLINK-3725,1 52123U 22029AM  23028.54381800  .00000288  00000-0  36171-4 0  9992,2 52123  53.2148 129.4875 0001281  79.5782 280.5354 15.08842421 49414,6917.873,95.437,540.624,538.852,0.0
52123.0,STARLINK-3725,PAYLOAD,2023-01-28 14:38:28,15.08845177,0.0001251,53.2148,129.1899,81.1335,278.9799,7.8146e-05,9.56e-06,0.0,0 STARLINK-3725,1 52123U 22029AM  23028.61005644  .00000956  00000-0  78146-4 0  9999,2 52123  53.2148 129.1899 0001251  81.1335 278.9799 15.08845177 49423,6917.865,95.437,540.595,538.864,0.0
52123.0,STARLINK-3725,PAYLOAD,2023-01-29 11:18:29,15.08835319,0.0001117,53.2157,125.3247,96.2915,263.8204,0.00012778,1.746e-05,0.0,0 STARLINK-3725,1 52123U 22029AM  23029.47118044  .00001746  00000-0  12778-3 0  9999,2 52123  53.2157 125.3247 0001117  96.2915 263.8204 15.08835319 49555,6917.895,95.438,540.532,538.987,0.0
52123.0,STARLINK-3725,PAYLOAD,2023-01-29 16:04:38,15.08843405,0.0001055,53.2157,124.4318,105.5833,254.5276,0.00012432,1.691e-05,0.0,0 STARLINK-3725,1 52123U 22029AM  23029.66989464  .00001691  00000-0  12432-3 0  9998,2 52123  53.2157 124.4318 0001055 105.5833 254.5276 15.08843405 49582,6917.87,95.437,540.465,539.005,0.0
52123.0,STARLINK-3725,PAYLOAD,2023-01-30 04:47:44,15.08832933,0.0001155,53.2154,122.0534,96.154,263.9584,4.635e-05,4.5e-06,0.0,0 STARLINK-3725,1 52123U 22029AM  23030.19982494  .00000450  00000-0  46350-4 0  9993,2 52123  53.2154 122.0534 0001155  96.1540 263.9584 15.08832933 49663,6917.902,95.438,540.566,538.968,0.0
52123.0,STARLINK-3725,PAYLOAD,2023-01-30 11:09:17,15.08837656,0.0001074,53.2157,120.8644,92.866,267.2455,8.8906e-05,1.127e-05,0.0,0 STARLINK-3725,1 52123U 22029AM  23030.46478167  .00001127  00000-0  88906-4 0  9995,2 52123  53.2157 120.8644 0001074  92.8660 267.2455 15.08837656 49706,6917.888,95.438,540.496,539.01,0.0
52123.0,STARLINK-3725,PAYLOAD,2023-01-30 22:16:59,15.08840492,0.000102,53.2158,118.7828,96.48,263.6309,3.9155e-05,3.35e-06,0.0,0 STARLINK-3725,1 52123U 22029AM  23030.92846072  .00000335  00000-0  39155-4 0  9992,2 52123  53.2158 118.7828 0001020  96.4800 263.6309 15.08840492 49771,6917.879,95.438,540.45,539.038,0.0
52123.0,STARLINK-3725,PAYLOAD,2023-01-31 11:00:04,15.0883689,0.0001016,53.2158,116.4036,97.9876,262.1231,8.1762e-05,1.014e-05,0.0,0 STARLINK-3725,1 52123U 22029AM  23031.45838285  .00001014  00000-0  81762-4 0  9994,2 52123  53.2158 116.4036 0001016  97.9876 262.1231 15.08836890 49855,6917.89,95.438,540.458,539.052,0.0
52123.0,STARLINK-3725,PAYLOAD,2023-02-01 10:50:50,15.08842866,9.78e-05,53.2154,111.943,102.1331,257.9771,0.00013296,1.829e-05,0.0,0 STARLINK-3725,1 52123U 22029AM  23032.45197744  .00001829  00000-0  13296-3 0  9993,2 52123  53.2154 111.9430 0000978 102.1331 257.9771 15.08842866 50000,6917.872,95.437,540.413,539.06,0.0
52123.0,STARLINK-3725,PAYLOAD,2023-02-02 13:52:24,15.08835479,0.0001255,53.216,106.8882,97.2031,262.9104,2.2136e-05,6.4e-07,0.0,0 STARLINK-3725,1 52123U 22029AM  23033.57806676  .00000064  00000-0  22136-4 0  9992,2 52123  53.2160 106.8882 0001255  97.2031 262.9104 15.08835479 50177,6917.894,95.438,540.627,538.891,0.0
52123.0,STARLINK-3725,PAYLOAD,2023-02-03 08:57:02,15.08841037,0.0001287,53.2167,103.3195,105.3854,254.728,2.1528e-05,5.5e-07,0.0,0 STARLINK-3725,1 52123U 22029AM  23034.37294501  .00000055  00000-0  21528-4 0  9993,2 52123  53.2167 103.3195 0001287 105.3854 254.7280 15.08841037 50296,6917.877,95.437,540.633,538.852,0.0
52123.0,STARLINK-3725,PAYLOAD,2023-02-04 04:01:40,15.08830126,0.0001057,53.2145,99.7493,92.0023,268.109,0.00020146,2.919e-05,0.0,0 STARLINK-3725,1 52123U 22029AM  23035.16782838  .00002919  00000-0  20146-3 0  9991,2 52123  53.2145  99.7493 0001057  92.0023 268.1090 15.08830126 50415,6917.911,95.438,540.507,539.044,0.0
52123.0,STARLINK-3725,PAYLOAD,2023-02-04 10:23:12,15.08841338,0.0001263,53.2151,98.5604,93.7677,266.3459,0.00014667,2.047e-05,0.0,0 STARLINK-3725,1 52123U 22029AM  23035.43278412  .00002047  00000-0  14667-3 0  9992,2 52123  53.2151  98.5604 0001263  93.7677 266.3459 15.08841338 50455,6917.876,95.437,540.615,538.868,0.0
52123.0,STARLINK-3725,PAYLOAD,2023-02-04 13:33:58,15.0884599,0.0001288,53.2152,97.9656,89.1605,270.9534,0.00016699,2.371e-05,0.0,0 STARLINK-3725,1 52123U 22029AM  23035.56526097  .00002371  00000-0  16699-3 0  9998,2 52123  53.2152  97.9656 0001288  89.1605 270.9534 15.08845990 50478,6917.862,95.437,540.618,538.836,0.0
52123.0,STARLINK-3725,PAYLOAD,2023-02-04 21:30:54,15.08838043,0.0001042,53.2152,96.4787,101.6214,258.4895,9.5478e-05,1.232e-05,0.0,0 STARLINK-3725,1 52123U 22029AM  23035.89646679  .00001232  00000-0  95478-4 0  9991,2 52123  53.2152  96.4787 0001042 101.6214 258.4895 15.08838043 50529,6917.886,95.438,540.472,539.031,0.0
52123.0,STARLINK-3725,PAYLOAD,2023-02-05 03:52:27,15.08837679,0.0001368,53.2146,95.2886,99.4754,260.6393,8.3714e-05,1.045e-05,0.0,0 STARLINK-3725,1 52123U 22029AM  23036.16142901  .00001045  00000-0  83714-4 0  9993,2 52123  53.2146  95.2886 0001368  99.4754 260.6393 15.08837679 50569,6917.887,95.438,540.699,538.806,0.0
52123.0,STARLINK-3725,PAYLOAD,2023-02-05 10:13:59,15.08841508,0.0001342,53.2159,94.1011,89.7753,270.3393,7.7362e-05,9.44e-06,0.0,0 STARLINK-3725,1 52123U 22029AM  23036.42638783  .00000944  00000-0  77362-4 0  9999,2 52123  53.2159  94.1011 0001342  89.7753 270.3393 15.08841508 50603,6917.876,95.437,540.669,538.812,0.0
52123.0,STARLINK-3725,PAYLOAD,2023-02-06 10:04:46,15.08846365,0.0001364,53.2165,89.642,84.9754,275.1394,0.00010124,1.324e-05,0.0,0 STARLINK-3725,1 52123U 22029AM  23037.41998533  .00001324  00000-0  10124-3 0  9996,2 52123  53.2165  89.6420 0001364  84.9754 275.1394 15.08846365 50751,6917.861,95.437,540.67,538.782,0.0
52123.0,STARLINK-3725,PAYLOAD,2023-02-06 13:15:32,15.08849298,0.0001293,53.2146,89.0448,101.4398,258.6739,0.0001758,2.512e-05,0.0,0 STARLINK-3725,1 52123U 22029AM  23037.55246355  .00002512  00000-0  17580-3 0  9992,2 52123  53.2146  89.0448 0001293 101.4398 258.6739 15.08849298 50773,6917.852,95.437,540.611,538.822,0.0
52123.0,STARLINK-3725,PAYLOAD,2023-02-07 11:30:56,15.08855748,0.000138,53.2155,84.8844,88.3183,271.7967,0.00029238,4.37e-05,0.0,0 STARLINK-3725,1 52123U 22029AM  23038.47981904  .00004370  00000-0  29238-3 0  9997,2 52123  53.2155  84.8844 0001380  88.3183 271.7967 15.08855748 50910,6917.832,95.437,540.652,538.743,0.0
52123.0,STARLINK-3725,PAYLOAD,2023-02-07 13:06:19,15.08860295,0.0001294,53.2147,84.5847,93.9596,266.1544,0.00034943,5.281e-05,0.0,0 STARLINK-3725,1 52123U 22029AM  23038.54605604  .00005281  00000-0  34943-3 0  9996,2 52123  53.2147  84.5847 0001294  93.9596 266.1544 15.08860295 50928,6917.818,95.436,540.579,538.788,0.0
52123.0,STARLINK-3725,PAYLOAD,2023-02-08 11:21:43,15.08850616,0.0001252,53.215,80.4206,104.2669,255.8462,0.00015465,2.175e-05,0.0,0 STARLINK-3725,1 52123U 22029AM  23039.47341883  .00002175  00000-0  15465-3 0  9992,2 52123  53.2150  80.4206 0001252 104.2669 255.8462 15.08850616 51063,6917.848,95.437,540.579,538.847,0.0
52123.0,STARLINK-3725,PAYLOAD,2023-02-09 03:15:35,15.08841837,0.0001811,53.2163,77.4506,91.0625,269.0574,4.6869e-05,4.58e-06,0.0,0 STARLINK-3725,1 52123U 22029AM  23040.13582464  .00000458  00000-0  46869-4 0  9994,2 52123  53.2163  77.4506 0001811  91.0625 269.0574 15.08841837 51169,6917.875,95.437,540.993,538.487,0.0
52123.0,STARLINK-3725,PAYLOAD,2023-02-09 11:12:31,15.08839954,0.000135,53.2151,75.9602,94.4843,265.6304,0.00011016,1.466e-05,0.0,0 STARLINK-3725,1 52123U 22029AM  23040.46702676  .00001466  00000-0  11016-3 0  9994,2 52123  53.2151  75.9602 0001350  94.4843 265.6304 15.08839954 51219,6917.881,95.438,540.679,538.812,0.0
52123.0,STARLINK-3725,PAYLOAD,2023-02-09 19:09:27,15.08836228,0.000151,53.2157,74.4752,84.0891,276.0273,0.00022918,3.361e-05,0.0,0 STARLINK-3725,1 52123U 22029AM  23040.79823290  .00003361  00000-0  22918-3 0  9995,2 52123  53.2157  74.4752 0001510  84.0891 276.0273 15.08836228 51268,6917.892,95.438,540.802,538.712,0.0
52123.0,STARLINK-3725,PAYLOAD,2023-02-10 03:06:23,15.08828643,0.0001601,53.2167,72.9891,87.9409,272.1766,3.5138e-05,2.71e-06,0.0,0 STARLINK-3725,1 52123U 22029AM  23041.12943797  .00000271  00000-0  35138-4 0  9994,2 52123  53.2167  72.9891 0001601  87.9409 272.1766 15.08828643 51316,6917.915,95.438,540.888,538.673,0.0
52123.0,STARLINK-3725,PAYLOAD,2023-02-10 19:00:14,15.08839164,0.0001323,53.2151,70.013,91.7804,268.334,0.00021061,3.065e-05,0.0,0 STARLINK-3725,1 52123U 22029AM  23041.79183462  .00003065  00000-0  21061-3 0  9995,2 52123  53.2151  70.0130 0001323  91.7804 268.3340 15.08839164 51413,6917.883,95.438,540.663,538.833,0.0
52123.0,STARLINK-3725,PAYLOAD,2023-02-11 09:18:42,15.0884505,0.0001344,53.2152,67.3365,86.9613,273.1533,0.00024549,3.622e-05,0.0,0 STARLINK-3725,1 52123U 22029AM  23042.38799426  .00003622  00000-0  24549-3 0  9997,2 52123  53.2152  67.3365 0001344  86.9613 273.1533 15.08845050 51509,6917.865,95.437,540.66,538.8,0.0
52123.0,STARLINK-3725,PAYLOAD,2023-02-11 18:51:01,15.08839656,0.0001675,53.2163,65.5542,70.991,289.1264,0.00013844,1.916e-05,0.0,0 STARLINK-3725,1 52123U 22029AM  23042.78543848  .00001916  00000-0  13844-3 0  9996,2 52123  53.2163  65.5542 0001675  70.9910 289.1264 15.08839656 51567,6917.881,95.438,540.905,538.588,0.0
52123.0,STARLINK-3725,PAYLOAD,2023-02-12 10:44:52,15.08850868,0.0001337,53.2154,62.5778,82.9731,277.1413,0.00030515,4.573e-05,0.0,0 STARLINK-3725,1 52123U 22029AM  23043.44783435  .00004573  00000-0  30515-3 0  9994,2 52123  53.2154  62.5778 0001337  82.9731 277.1413 15.08850868 51666,6917.847,95.437,540.637,538.787,0.0
